AEROCUBE 8C             
1 41853U 16067F   24184.69731183  .00008133  00000+0  53232-3 0  9990
2 41853  98.0884 353.3270 0007412 354.5681   5.5464 15.08019960417723
PROMETHEUS 2-1          
1 41854U 16067G   24185.05483835  .00017386  00000+0  86609-3 0  9994
2 41854  98.0994   1.3199 0011938   7.3211 352.8192 15.17585805418145
PROMETHEUS 2-3          
1 41855U 16067H   24185.05145381  .00017792  00000+0  88741-3 0  9996
2 41855  98.0923   0.7892 0010295  18.1043 342.0554 15.17552806418147
DIDO-2                  
1 42000U 17008BE  24185.15514896  .00789924  32897-3  10332-2 0  9993
2 42000  97.1347 248.0508 0007427 239.7601 120.2947 16.06975698411350
AALTO-1                 
1 42775U 17036L   24184.83341209  .00125550  00000+0  95128-3 0  9996
2 42775  97.1006 214.7053 0007789 142.0443 218.1371 15.71960559391566
CORVUS BC2              
1 42846U 17042X   24185.49002857  .00003304  00000+0  28523-3 0  9995
2 42846  97.3738   9.6865 0008560  12.6363 347.5074 14.97870466379884
CORVUS BC1              
1 42847U 17042Y   24184.78149845  .00004448  00000+0  38094-3 0  9990
2 42847  97.3722   9.4207 0007821  14.7469 345.3980 14.98015109379793
MIRATA                  
1 43015U 17073C   24185.39603741  .00017193  00000+0  79945-3 0  9991
2 43015  97.5946  69.9596 0166984 204.8606 154.4513 15.08412626358777
MAKERSAT 0              
1 43016U 17073D   24185.38355731  .00008889  00000+0  50298-3 0  9996
2 43016  97.5775  63.9247 0193711 227.6431 130.8251 14.98690211358337
GOMX-4B                 
1 43196U 18015E   24185.02562774  .00074098  00000+0  72322-3 0  9997
2 43196  97.6051 359.8802 0007241 242.4114 117.6410 15.65936791358008
GOMX-4A                 
1 43197U 18015F   24185.44903197  .00147496  00000+0  75226-3 0  9991
2 43197  97.5938   5.7947 0007187 227.9526 132.1130 15.80943215358448
CICERO 10               
1 43690U 18088A   24185.44160047  .00309231  35547-4  80111-3 0  9993
2 43690  84.9956 167.3182 0012637 168.0223 192.1362 15.94902967314772
SIRION PATHFINDER-2     
1 43759U 18099B   24184.74008691  .00005454  00000+0  40960-3 0  9998
2 43759  97.5289 240.4484 0009504 224.3161 135.7304 15.02972937304840
CORVUS BC4              
1 43767U 18099K   24184.78055225  .00004917  00000+0  37687-3 0  9991
2 43767  97.5080 237.6567 0009460 296.7625  63.2632 15.02248002304733
MOVE-II                 
1 43780U 18099Y   24185.45888098  .00020857  00000+0  10704-2 0  9994
2 43780  97.5213 248.3016 0005083 273.2240  86.8412 15.16538394305395
SPACEBEE-7              
1 43816U 18099BL  24184.75756110  .00013688  00000+0  79700-3 0  9991
2 43816  97.5484 248.2715 0009181 225.0786 134.9701 15.12107204304767
SPACEBEE-6              
1 43818U 18099BN  24184.77762827  .00032194  00000+0  13061-2 0  9997
2 43818  97.5405 253.9098 0008380 221.0794 138.9813 15.24519179305281
SHIELDS 1               
1 43850U 18104B   24185.51855109  .00014911  00000+0  39270-3 0  9997
2 43850  85.0234 272.0198 0010483  22.0538 338.1161 15.38341014308676
SONATE                  
1 44400U 19038Q   24184.98378985  .00023160  00000+0  68236-3 0  9998
2 44400  97.7112 179.7910 0017303  56.6793 303.6103 15.34894990276503
LUCKY-7                 
1 44406U 19038W   24185.04058837  .00044100  00000+0  91111-3 0  9998
2 44406  97.7005 184.1876 0013283  45.4489 314.7841 15.45614949276814
DUCHIFAT-3              
1 44854U 19089C   24185.51731222  .00016173  00000+0  80308-3 0  9994
2 44854  36.9576 309.8275 0005714 230.3918 129.6326 15.17011394250682
M2 PATHFINDER           
1 45727U 20037E   24185.02502349  .00004225  00000+0  36890-3 0  9993
2 45727  97.7761   1.3761 0012280  74.5767 285.6811 14.97293146218313
NETSAT-4                
1 46504U 20068U   24184.85221558  .00010189  00000+0  53941-3 0  9993
2 46504  97.8055 142.4199 0008125 317.4824  42.5777 15.15607997206549
NETSAT-3                
1 46505U 20068V   24184.84270698  .00010378  00000+0  55866-3 0  9990
2 46505  97.8027 141.8973 0007761 327.9219  32.1539 15.15012090206535
NETSAT-1                
1 46506U 20068W   24184.84410814  .00008467  00000+0  47938-3 0  9994
2 46506  97.8052 141.3359 0007043 341.7889  18.3088 15.13275313206494
NETSAT-2                
1 46507U 20068X   24184.93633852  .00011045  00000+0  58596-3 0  9992
2 46507  97.8042 142.1323 0006413 350.9423   9.1692 15.15519195206502
WILDTRACKCUBE-SIMBA     
1 47941U 21022K   24185.54666786  .00014267  00000+0  62573-3 0  9995
2 47941  97.4597  82.1722 0017526  88.5534 271.7709 15.21941780180958
BEESAT-6                
1 47957U 21022AB  24185.21512300  .00761900  22971-3  27724-2 0  9994
2 47957  97.4194  94.8344 0009459 120.5127 239.7080 15.88417603181591
SMOG-1                  
1 47964U 21022AJ  24184.70060774  .00328116  00000+0  20214-2 0  9998
2 47964  97.4561  97.2358 0008160  99.2311 260.9877 15.76226595180677
BCCSAT-1                
1 48041U 21022AK  24184.80707318  .00090594  00000+0  14918-2 0  9998
2 48041  97.4607  92.5068 0008658  69.4669 290.7512 15.51977761180351
BEESAT-7                
1 48084U 21022AN  24185.18640067  .00269721  00000+0  23397-2 0  9995
2 48084  97.4534  94.3690 0008868  90.9339 269.2938 15.68245614180260
BEESAT-8                
1 48085U 21022AP  24184.68909893  .00029345  00000+0  90021-3 0  9990
2 48085  97.4761  86.9365 0014399  76.0887 284.1956 15.33611761180255
LEDSAT                  
1 49069U 21073D   24185.19554413  .00016410  00000+0  64907-3 0  9993
2 49069  97.4379 256.2242 0018453 222.9686 137.0112 15.25385251158891
SITRO-AIS 5 (KATYS)     
1 57176U 23091L   24185.54068897  .00008456  00000+0  53942-3 0  9996
2 57176  97.6125 237.5845 0018981  69.6646 290.6619 15.08799335 55964
SITRO-AIS 6 (CHIRKIN)   
1 57192U 23091AC  24185.52520165  .00007979  00000+0  50850-3 0  9997
2 57192  97.6119 237.5950 0018742  69.5285 290.7954 15.08856550 55961
SITRO-AIS 8 (ANOKHIN)   
1 57193U 23091AD  24185.48957001  .00009570  00000+0  60351-3 0  9992
2 57193  97.6120 237.6337 0018321  70.3686 289.9518 15.09194391 55967
SITRO-AIS 7 (FARTUSHNIY)
1 57194U 23091AE  24185.46438626  .00008298  00000+0  52929-3 0  9996
2 57194  97.6120 237.5153 0018694  70.3335 289.9908 15.08811635 55955
SITRO-AIS 10 (BURDAEV)  
1 57199U 23091AK  24185.50651684  .00010181  00000+0  61141-3 0  9997
2 57199  97.6130 238.6006 0013142  60.6175 299.6365 15.11026241 56026
SITRO-AIS 9 (SHCHUKIN)  
1 57201U 23091AM  24185.50500274  .00010603  00000+0  63688-3 0  9996
2 57201  97.6126 238.5784 0013121  60.5008 299.7528 15.11010108 56025
SITRO-AIS 12 (SMIRENNIY)
1 57204U 23091AQ  24185.46542733  .00009656  00000+0  57731-3 0  9998
2 57204  97.6139 238.6767 0013112  55.9828 304.2646 15.11205060 56028
SITRO-AIS 11 (SHEFFER)  
1 57208U 23091AU  24185.51642779  .00009553  00000+0  56995-3 0  9996
2 57208  97.6131 238.7516 0012821  55.6518 304.5923 15.11286181 56031
SITRO-AIS 29            
1 59052U 24039B   24185.52939183  .00021716  00000+0  77812-3 0  9993
2 59052  97.3915 147.4059 0019161 151.3520 208.8777 15.28580710 19097
SITRO-AIS 30            
1 59053U 24039C   24185.52949899  .00020908  00000+0  75062-3 0  9996
2 59053  97.3913 147.4016 0019238 152.1367 208.0907 15.28523904 19080
SITRO-AIS 31            
1 59054U 24039D   24185.45599881  .00021023  00000+0  75172-3 0  9992
2 59054  97.3914 147.3480 0019122 152.2975 207.9288 15.28657367 19096
SITRO-AIS 33            
1 59055U 24039E   24185.51205957  .00022286  00000+0  79335-3 0  9995
2 59055  97.3919 147.4305 0018818 152.6057 207.6180 15.28795592 19096
SITRO-AIS 35            
1 59056U 24039F   24185.50832787  .00023064  00000+0  82032-3 0  9995
2 59056  97.3917 147.4328 0018606 152.5967 207.6258 15.28821884 19094
SITRO-AIS 32            
1 59057U 24039G   24185.51571015  .00020662  00000+0  73849-3 0  9998
2 59057  97.3918 147.4247 0018639 152.8762 207.3456 15.28684072 19091
SITRO-AIS 34            
1 59058U 24039H   24185.51193181  .00022343  00000+0  79625-3 0  9999
2 59058  97.3919 147.4318 0018817 152.8136 207.4094 15.28759021 19091
SITRO-AIS 36            
1 59059U 24039J   24185.50339055  .00022597  00000+0  80196-3 0  9997
2 59059  97.3917 147.4396 0018391 152.7087 207.5123 15.28900901 19096
SITRO-AIS 49            
1 59060U 24039K   24185.50370551  .00021555  00000+0  76642-3 0  9999
2 59060  97.3918 147.4392 0018429 152.2436 207.9792 15.28848492 19092
SITRO-AIS 50            
1 59061U 24039L   24185.49380287  .00021622  00000+0  76494-3 0  9995
2 59061  97.3916 147.4513 0018340 152.3738 207.8481 15.29014933 19094
SITRO-AIS 51            
1 59062U 24039M   24185.49350643  .00021047  00000+0  74492-3 0  9996
2 59062  97.3917 147.4525 0018356 152.2239 207.9985 15.29005867 19097
SITRO-AIS 52            
1 59063U 24039N   24185.48677283  .00021513  00000+0  75914-3 0  9996
2 59063  97.3918 147.4625 0018226 152.0912 208.1310 15.29101037 19093
SITRO-AIS 25            
1 59066U 24039R   24185.53862975  .00005246  00000+0  50400-3 0  9997
2 59066  95.4030 108.4392 0168845 287.0433  71.2349 14.83099052 18539
SITRO-AIS 26            
1 59067U 24039S   24185.53847291  .00004993  00000+0  48041-3 0  9998
2 59067  95.4030 108.4385 0168765 287.0736  71.2058 14.83068371 18536
SITRO-AIS 27            
1 59068U 24039T   24185.52750438  .00005480  00000+0  52508-3 0  9999
2 59068  95.4031 108.4520 0168394 286.9287  71.3533 14.83238141 18539
SITRO-AIS 28            
1 59071U 24039U   24185.52450491  .00005560  00000+0  53232-3 0  9993
2 59071  95.4032 108.4559 0168228 286.9217  71.3620 14.83280371 18534
